{"fetched_at":"2026-03-29T02:12:04Z","count":15717,"tles":[{"name":"GUOWANG GROUP 20 OBJECT*","line1":"1 68130U 26047B   26085.75628566 -.00000072  00000+0  55036-4 0  9995","line2":"2 68130  50.0066   1.0171 0000428 307.3036  52.7826 13.96591410  1957","category":"Other"}]}